CCSDS_OMM_VERS = 2.0
CREATION_DATE  = 
ORIGINATOR     = 

OBJECT_NAME    = SL-4 R/B
OBJECT_ID      = 2014-021B
CENTER_NAME    = EARTH
REF_FRAME      = TEME
TIME_SYSTEM    = UTC
MEAN_ELEMENT_THEORY = SGP/SGP4

EPOCH          = 2026-02-16T06:17:46.246848
MEAN_MOTION    = 15.38447065
ECCENTRICITY   = .00988771
INCLINATION    = 51.6060
RA_OF_ASC_NODE = 81.7507
ARG_OF_PERICENTER = 24.9063
MEAN_ANOMALY   = 335.6646

EPHEMERIS_TYPE = 0
CLASSIFICATION_TYPE = U
NORAD_CAT_ID   = 39679
ELEMENT_SET_NO = 999
REV_AT_EPOCH   = 65297
BSTAR          = .29011251E-3
MEAN_MOTION_DOT = .128E-3
MEAN_MOTION_DDOT = 0

CCSDS_OMM_VERS = 2.0
CREATION_DATE  = 
ORIGINATOR     = 

OBJECT_NAME    = ALOS-2
OBJECT_ID      = 2014-029A
CENTER_NAME    = EARTH
REF_FRAME      = TEME
TIME_SYSTEM    = UTC
MEAN_ELEMENT_THEORY = SGP/SGP4

EPOCH          = 2026-02-16T06:42:09.099072
MEAN_MOTION    = 14.79458909
ECCENTRICITY   = .00015331
INCLINATION    = 97.9211
RA_OF_ASC_NODE = 146.1856
ARG_OF_PERICENTER = 103.0378
MEAN_ANOMALY   = 257.1005

EPHEMERIS_TYPE = 0
CLASSIFICATION_TYPE = U
NORAD_CAT_ID   = 39766
ELEMENT_SET_NO = 999
REV_AT_EPOCH   = 63370
BSTAR          = .4714244E-5
MEAN_MOTION_DOT = -.16E-6
MEAN_MOTION_DDOT = 0

CCSDS_OMM_VERS = 2.0
CREATION_DATE  = 
ORIGINATOR     = 

OBJECT_NAME    = YAOGAN-29
OBJECT_ID      = 2015-069A
CENTER_NAME    = EARTH
REF_FRAME      = TEME
TIME_SYSTEM    = UTC
MEAN_ELEMENT_THEORY = SGP/SGP4

EPOCH          = 2026-02-16T06:29:46.203360
MEAN_MOTION    = 14.82969229
ECCENTRICITY   = .00028159
INCLINATION    = 98.0170
RA_OF_ASC_NODE = 75.6410
ARG_OF_PERICENTER = 71.0598
MEAN_ANOMALY   = 289.0920

EPHEMERIS_TYPE = 0
CLASSIFICATION_TYPE = U
NORAD_CAT_ID   = 41038
ELEMENT_SET_NO = 999
REV_AT_EPOCH   = 55270
BSTAR          = .19019275E-4
MEAN_MOTION_DOT = .1E-5
MEAN_MOTION_DDOT = 0

CCSDS_OMM_VERS = 2.0
CREATION_DATE  = 
ORIGINATOR     = 

OBJECT_NAME    = ASTRO-H (HITOMI)
OBJECT_ID      = 2016-012A
CENTER_NAME    = EARTH
REF_FRAME      = TEME
TIME_SYSTEM    = UTC
MEAN_ELEMENT_THEORY = SGP/SGP4

EPOCH          = 2026-02-16T06:45:44.893440
MEAN_MOTION    = 15.09846383
ECCENTRICITY   = .00098384
INCLINATION    = 30.9991
RA_OF_ASC_NODE = 134.6797
ARG_OF_PERICENTER = 117.7958
MEAN_ANOMALY   = 242.3678

EPHEMERIS_TYPE = 0
CLASSIFICATION_TYPE = U
NORAD_CAT_ID   = 41337
ELEMENT_SET_NO = 999
REV_AT_EPOCH   = 54899
BSTAR          = .22310627E-3
MEAN_MOTION_DOT = .3797E-4
MEAN_MOTION_DDOT = 0

CCSDS_OMM_VERS = 2.0
CREATION_DATE  = 
ORIGINATOR     = 

OBJECT_NAME    = HXMT (HUIYAN)
OBJECT_ID      = 2017-034A
CENTER_NAME    = EARTH
REF_FRAME      = TEME
TIME_SYSTEM    = UTC
MEAN_ELEMENT_THEORY = SGP/SGP4

EPOCH          = 2026-02-16T07:37:01.187904
MEAN_MOTION    = 15.17185239
ECCENTRICITY   = .00305635
INCLINATION    = 43.0145
RA_OF_ASC_NODE = 135.4679
ARG_OF_PERICENTER = 99.8698
MEAN_ANOMALY   = 260.5603

EPHEMERIS_TYPE = 0
CLASSIFICATION_TYPE = U
NORAD_CAT_ID   = 42758
ELEMENT_SET_NO = 999
REV_AT_EPOCH   = 47929
BSTAR          = .35868159E-3
MEAN_MOTION_DOT = .7105E-4
MEAN_MOTION_DDOT = 0

CCSDS_OMM_VERS = 2.0
CREATION_DATE  = 
ORIGINATOR     = 

OBJECT_NAME    = CZ-2C R/B
OBJECT_ID      = 2018-054D
CENTER_NAME    = EARTH
REF_FRAME      = TEME
TIME_SYSTEM    = UTC
MEAN_ELEMENT_THEORY = SGP/SGP4

EPOCH          = 2026-02-16T05:58:52.679712
MEAN_MOTION    = 16.03056834
ECCENTRICITY   = .00115955
INCLINATION    = 35.1280
RA_OF_ASC_NODE = 89.5897
ARG_OF_PERICENTER = 101.8615
MEAN_ANOMALY   = 258.3427

EPHEMERIS_TYPE = 0
CLASSIFICATION_TYPE = U
NORAD_CAT_ID   = 43521
ELEMENT_SET_NO = 999
REV_AT_EPOCH   = 42545
BSTAR          = .84412037E-3
MEAN_MOTION_DOT = .547585E-2
MEAN_MOTION_DDOT = .13522107E-3

CCSDS_OMM_VERS = 2.0
CREATION_DATE  = 
ORIGINATOR     = 

OBJECT_NAME    = SAOCOM 1A
OBJECT_ID      = 2018-076A
CENTER_NAME    = EARTH
REF_FRAME      = TEME
TIME_SYSTEM    = UTC
MEAN_ELEMENT_THEORY = SGP/SGP4

EPOCH          = 2026-02-16T05:23:27.540384
MEAN_MOTION    = 14.82144520
ECCENTRICITY   = .00013976
INCLINATION    = 97.8873
RA_OF_ASC_NODE = 235.7007
ARG_OF_PERICENTER = 80.1857
MEAN_ANOMALY   = 279.9514

EPHEMERIS_TYPE = 0
CLASSIFICATION_TYPE = U
NORAD_CAT_ID   = 43641
ELEMENT_SET_NO = 999
REV_AT_EPOCH   = 39818
BSTAR          = .48820717E-4
MEAN_MOTION_DOT = .336E-5
MEAN_MOTION_DDOT = 0

CCSDS_OMM_VERS = 2.0
CREATION_DATE  = 
ORIGINATOR     = 

OBJECT_NAME    = H-2A R/B
OBJECT_ID      = 2018-084L
CENTER_NAME    = EARTH
REF_FRAME      = TEME
TIME_SYSTEM    = UTC
MEAN_ELEMENT_THEORY = SGP/SGP4

EPOCH          = 2026-02-16T04:08:38.742432
MEAN_MOTION    = 15.40384838
ECCENTRICITY   = .00263924
INCLINATION    = 98.8752
RA_OF_ASC_NODE = 259.9776
ARG_OF_PERICENTER = 97.5445
MEAN_ANOMALY   = 262.8796

EPHEMERIS_TYPE = 0
CLASSIFICATION_TYPE = U
NORAD_CAT_ID   = 43682
ELEMENT_SET_NO = 999
REV_AT_EPOCH   = 40246
BSTAR          = .52438765E-3
MEAN_MOTION_DOT = .21373E-3
MEAN_MOTION_DDOT = 0

CCSDS_OMM_VERS = 2.0
CREATION_DATE  = 
ORIGINATOR     = 

OBJECT_NAME    = SAOCOM 1B
OBJECT_ID      = 2020-059A
CENTER_NAME    = EARTH
REF_FRAME      = TEME
TIME_SYSTEM    = UTC
MEAN_ELEMENT_THEORY = SGP/SGP4

EPOCH          = 2026-02-16T06:08:28.780224
MEAN_MOTION    = 14.82145084
ECCENTRICITY   = .00014404
INCLINATION    = 97.8869
RA_OF_ASC_NODE = 234.8293
ARG_OF_PERICENTER = 86.4872
MEAN_ANOMALY   = 273.6506

EPHEMERIS_TYPE = 0
CLASSIFICATION_TYPE = U
NORAD_CAT_ID   = 46265
ELEMENT_SET_NO = 999
REV_AT_EPOCH   = 29557
BSTAR          = .1062153E-5
MEAN_MOTION_DOT = -.44E-6
MEAN_MOTION_DDOT = 0

CCSDS_OMM_VERS = 2.0
CREATION_DATE  = 
ORIGINATOR     = 

OBJECT_NAME    = CSS (TIANHE)
OBJECT_ID      = 2021-035A
CENTER_NAME    = EARTH
REF_FRAME      = TEME
TIME_SYSTEM    = UTC
MEAN_ELEMENT_THEORY = SGP/SGP4

EPOCH          = 2026-02-16T06:31:07.923936
MEAN_MOTION    = 15.59714747
ECCENTRICITY   = .000412
INCLINATION    = 41.4685
RA_OF_ASC_NODE = 338.3898
ARG_OF_PERICENTER = 112.5998
MEAN_ANOMALY   = 247.5276

EPHEMERIS_TYPE = 0
CLASSIFICATION_TYPE = U
NORAD_CAT_ID   = 48274
ELEMENT_SET_NO = 999
REV_AT_EPOCH   = 27426
BSTAR          = .35110354E-3
MEAN_MOTION_DOT = .28663E-3
MEAN_MOTION_DDOT = 0

CCSDS_OMM_VERS = 2.0
CREATION_DATE  = 
ORIGINATOR     = 

OBJECT_NAME    = COSMOS 2550
OBJECT_ID      = 2021-056A
CENTER_NAME    = EARTH
REF_FRAME      = TEME
TIME_SYSTEM    = UTC
MEAN_ELEMENT_THEORY = SGP/SGP4

EPOCH          = 2026-02-15T17:42:43.325280
MEAN_MOTION    = 15.33826475
ECCENTRICITY   = .0008396
INCLINATION    = 67.1426
RA_OF_ASC_NODE = 107.3331
ARG_OF_PERICENTER = 269.7676
MEAN_ANOMALY   = 90.2516

EPHEMERIS_TYPE = 0
CLASSIFICATION_TYPE = U
NORAD_CAT_ID   = 48865
ELEMENT_SET_NO = 999
REV_AT_EPOCH   = 26009
BSTAR          = .4102791E-5
MEAN_MOTION_DOT = -.57E-6
MEAN_MOTION_DDOT = 0

CCSDS_OMM_VERS = 2.0
CREATION_DATE  = 
ORIGINATOR     = 

OBJECT_NAME    = CZ-2C R/B
OBJECT_ID      = 2022-058K
CENTER_NAME    = EARTH
REF_FRAME      = TEME
TIME_SYSTEM    = UTC
MEAN_ELEMENT_THEORY = SGP/SGP4

EPOCH          = 2026-02-16T06:50:09.380256
MEAN_MOTION    = 15.52689384
ECCENTRICITY   = .00421358
INCLINATION    = 50.1881
RA_OF_ASC_NODE = 68.2641
ARG_OF_PERICENTER = 109.7074
MEAN_ANOMALY   = 250.8449

EPHEMERIS_TYPE = 0
CLASSIFICATION_TYPE = U
NORAD_CAT_ID   = 52794
ELEMENT_SET_NO = 999
REV_AT_EPOCH   = 20680
BSTAR          = .5329585E-3
MEAN_MOTION_DOT = .34476E-3
MEAN_MOTION_DDOT = 0

