SL-4 R/B                
1 39679U 14021B   26047.26234082  .00012800  00000+0  29011-3 0  9994
2 39679  51.6060  81.7507 0098877  24.9063 335.6646 15.38447065652970
ALOS-2                  
1 39766U 14029A   26047.27927198 -.00000016  00000+0  47142-5 0  9991
2 39766  97.9211 146.1856 0001533 103.0378 257.1005 14.79458909633702
YAOGAN-29               
1 41038U 15069A   26047.27067365  .00000100  00000+0  19019-4 0  9996
2 41038  98.0170  75.6410 0002815  71.0598 289.0920 14.82969229552703
ASTRO-H (HITOMI)        
1 41337U 16012A   26047.28176960  .00003797  00000+0  22311-3 0  9993
2 41337  30.9991 134.6797 0009838 117.7958 242.3678 15.09846383548998
HXMT (HUIYAN)           
1 42758U 17034A   26047.31737486  .00007105  00000+0  35868-3 0  9994
2 42758  43.0145 135.4679 0030563  99.8698 260.5603 15.17185239479291
CZ-2C R/B               
1 43521U 18054D   26047.24922083  .00547585  13522-3  84412-3 0  9994
2 43521  35.1280  89.5897 0011595 101.8615 258.3427 16.03056834425452
SAOCOM 1A               
1 43641U 18076A   26047.22462431  .00000336  00000+0  48821-4 0  9991
2 43641  97.8873 235.7007 0001397  80.1857 279.9514 14.82144520398182
H-2A R/B                
1 43682U 18084L   26047.17267063  .00021373  00000+0  52439-3 0  9996
2 43682  98.8752 259.9776 0026392  97.5445 262.8796 15.40384838402465
SAOCOM 1B               
1 46265U 20059A   26047.25588866 -.00000044  00000+0  10622-5 0  9990
2 46265  97.8869 234.8293 0001440  86.4872 273.6506 14.82145084295571
CSS (TIANHE)            
1 48274U 21035A   26047.27161949  .00028663  00000+0  35110-3 0  9991
2 48274  41.4685 338.3898 0004120 112.5998 247.5276 15.59714747274263
COSMOS 2550             
1 48865U 21056A   26046.73800145 -.00000057  00000+0  41028-5 0  9993
2 48865  67.1426 107.3331 0008396 269.7676  90.2516 15.33826475260090
CZ-2C R/B               
1 52794U 22058K   26047.28483079  .00034476  00000+0  53296-3 0  9995
2 52794  50.1881  68.2641 0042135 109.7074 250.8449 15.52689384206801
